     2.100          NAVIGATION                              RINEX VERSION / TYPE
fic2rin                                 04/18/2017 00:18:49 PGM / RUN BY / DATE
                                                            END OF HEADER
 8 17  4 17 20  0  0.0 -.566109083593D-04 -.136424205266D-11  .000000000000D+00
     .510000000000D+02 -.598125000000D+02  .440482633584D-08  .163242768594D+01
    -.301748514175D-05  .258817791473D-02  .576302409172D-05  .515362152863D+04
     .158400000000D+06  .149011611938D-07 -.282695518928D+01 -.540167093277D-07
     .966626980054D+00  .265281250000D+03 -.733556592056D+00 -.808676541767D-08
    -.203579908492D-09  .100000000000D+01  .194500000000D+04  .000000000000D+00
     .340000000000D+01  .000000000000D+00  .512227416039D-08  .510000000000D+02
     .151206000000D+06  .400000000000D+01
10 17  4 17 20  0  0.0 -.742007978261D-04  .784439180279D-11  .000000000000D+00
     .980000000000D+02  .278125000000D+01  .459233414629D-08  .302457887472D+01
     .253319740295D-06  .243936874904D-02  .746734440327D-05  .515367041016D+04
     .158400000000D+06  .000000000000D+00 -.725487870316D+00 -.484287738800D-07
     .959946356910D+00  .235656250000D+03 -.279605573936D+01 -.798104672835D-08
     .185364864048D-09  .100000000000D+01  .194500000000D+04  .000000000000D+00
     .240000000000D+01  .000000000000D+00  .186264514923D-08  .980000000000D+02
     .151206000000D+06  .400000000000D+01
11 17  4 17 20  0  0.0 -.682017300278D-03 -.261479726760D-11  .000000000000D+00
     .690000000000D+02 -.447187500000D+02  .576416867219D-08 -.168421282522D+01
    -.218488276005D-05  .166590162553D-01  .800751149654D-05  .515370702362D+04
     .158400000000D+06  .614672899246D-07 -.216410437577D+01  .478699803352D-06
     .900275363580D+00  .190500000000D+03  .163393573212D+01 -.859285792702D-08
    -.396445084958D-10  .100000000000D+01  .194500000000D+04  .000000000000D+00
     .240000000000D+01  .000000000000D+00 -.121071934700D-07  .690000000000D+02
     .151206000000D+06  .400000000000D+01
12 17  4 17 20  0  0.0  .385287683457D-03 -.682121026330D-12  .000000000000D+00
     .580000000000D+02  .190312500000D+02  .415767318378D-08 -.228277572421D+01
     .105239450932D-05  .667247979436D-02  .411644577980D-05  .515354986572D+04
     .158400000000D+06  .132247805595D-06  .247686173434D+01 -.670552253723D-07
     .989423819736D+00  .315187500000D+03  .835457246593D+00 -.799926177279D-08
     .123933733766D-09  .100000000000D+01  .194500000000D+04  .000000000000D+00
     .240000000000D+01  .000000000000D+00 -.125728547573D-07  .580000000000D+02
     .151206000000D+06  .400000000000D+01
13 17  4 17 20  0  0.0 -.783866271377D-04 -.147792889038D-11  .000000000000D+00
     .830000000000D+02  .180625000000D+02  .434518099423D-08 -.653130214409D+00
     .800937414169D-06  .388313084841D-02  .876002013683D-05  .515368700027D+04
     .158400000000D+06 -.111758708954D-07  .440097465083D+00 -.260770320892D-07
     .970120788305D+00  .217718750000D+03  .184147129320D+01 -.793318759196D-08
    -.190365072327D-09  .100000000000D+01  .194500000000D+04  .000000000000D+00
     .240000000000D+01  .000000000000D+00 -.111758708954D-07  .830000000000D+02
     .151206000000D+06  .400000000000D+01
14 17  4 17 20  0  0.0 -.672973692417D-04 -.147792889038D-11  .000000000000D+00
     .920000000000D+02  .128437500000D+02  .456519015849D-08  .716280167373D+00
     .594183802605D-06  .893011025619D-02  .825338065624D-05  .515364140129D+04
     .158400000000D+06 -.128522515297D-06  .400924242047D+00 -.372529029846D-08
     .962649295556D+00  .220718750000D+03 -.196062418014D+01 -.814998233662D-08
    -.243938732456D-09  .100000000000D+01  .194500000000D+04  .000000000000D+00
     .240000000000D+01  .000000000000D+00 -.931322574615D-08  .920000000000D+02
     .151206000000D+06  .400000000000D+01
15 17  4 17 20  0  0.0 -.348084140569D-03 -.795807864051D-12  .000000000000D+00
     .630000000000D+02  .668750000000D+01  .533165065608D-08  .187369089063D+00
     .447034835815D-06  .911257404368D-02  .776536762714D-05  .515377560806D+04
     .158400000000D+06  .800937414169D-07  .253933312885D+00  .149011611938D-06
     .929696920991D+00  .213718750000D+03  .579770399639D+00 -.848571060676D-08
    -.194293807403D-09  .100000000000D+01  .194500000000D+04  .000000000000D+00
     .240000000000D+01  .000000000000D+00 -.107102096081D-07  .630000000000D+02
     .151206000000D+06  .400000000000D+01
16 17  4 17 20  0  0.0  .315322540700D-04  .795807864051D-12  .000000000000D+00
     .570000000000D+02  .141562500000D+02  .409909931537D-08  .200314808684D+01
     .793486833572D-06  .936589122284D-02  .488013029099D-05  .515368259621D+04
     .158400000000D+06 -.242143869400D-06  .249570996502D+01  .128522515297D-06
     .989913102928D+00  .304250000000D+03  .432927358328D+00 -.796533178804D-08
    -.100004165575D-10  .100000000000D+01  .194500000000D+04  .000000000000D+00
     .240000000000D+01  .000000000000D+00 -.107102096081D-07  .570000000000D+02
     .151206000000D+06  .400000000000D+01
17 17  4 17 20  0  0.0 -.183545053005D-03  .159161572810D-11  .000000000000D+00
     .860000000000D+02 -.705937500000D+02  .415838749925D-08  .101828938197D+01
    -.372529029846D-05  .116257445188D-01  .697374343872D-05  .515361494446D+04
     .158400000000D+06 -.223517417908D-06 -.276996086790D+01  .242143869400D-07
     .979831781881D+00  .260500000000D+03 -.185099725104D+01 -.811712382507D-08
    -.226438003480D-09  .100000000000D+01  .194500000000D+04  .000000000000D+00
     .240000000000D+01  .000000000000D+00 -.111758708954D-07  .860000000000D+02
     .151206000000D+06  .400000000000D+01
18 17  4 17 20  0  0.0  .611001159996D-03  .204636307899D-11  .000000000000D+00
     .780000000000D+02 -.456250000000D+01  .522021744301D-08  .250737475738D+01
    -.305473804474D-06  .179612808861D-01  .698491930962D-05  .515375086594D+04
     .158400000000D+06  .193715095520D-06 -.766161049592D+00 -.160187482834D-06
     .925489905067D+00  .222406250000D+03 -.181414575068D+01 -.804497796277D-08
     .147863301957D-09  .100000000000D+01  .194500000000D+04  .000000000000D+00
     .240000000000D+01  .000000000000D+00 -.111758708954D-07  .780000000000D+02
     .151206000000D+06  .400000000000D+01
19 17  4 17 20  0  0.0 -.506812706590D-03  .125055521494D-11  .000000000000D+00
     .730000000000D+02 -.805000000000D+02  .410981404739D-08 -.214276112221D+01
    -.412762165070D-05  .102381346514D-01  .672042369843D-05  .515366606522D+04
     .158400000000D+06  .135973095894D-06 -.272204245956D+01  .149011611938D-07
     .977059698413D+00  .255656250000D+03  .948968842007D+00 -.783889795014D-08
    -.532165023952D-10  .100000000000D+01  .194500000000D+04  .000000000000D+00
     .240000000000D+01  .000000000000D+00 -.153668224812D-07  .730000000000D+02
     .151206000000D+06  .400000000000D+01
20 17  4 17 20  0  0.0  .468690879643D-03  .159161572810D-11  .000000000000D+00
     .560000000000D+02 -.362500000000D+01  .536129474802D-08  .147993436201D+00
    -.838190317154D-07  .438764726277D-02  .716000795364D-05  .515365560913D+04
     .158400000000D+06 -.113621354103D-06 -.817562070468D+00 -.670552253723D-07
     .926800799625D+00  .226093750000D+03  .158441473799D+01 -.844463746733D-08
     .172864343351D-09  .100000000000D+01  .194500000000D+04  .000000000000D+00
     .240000000000D+01  .000000000000D+00 -.838190317154D-08  .560000000000D+02
     .151206000000D+06  .400000000000D+01
21 17  4 17 20  0  0.0 -.511853490025D-03  .204636307899D-11  .000000000000D+00
     .370000000000D+02 -.426875000000D+02  .467912347570D-08 -.286837970280D+01
    -.223889946938D-05  .240206592716D-01  .846385955811D-05  .515370401001D+04
     .158400000000D+06  .333413481712D-06 -.180721504169D+01  .260770320892D-07
     .939050077491D+00  .198906250000D+03 -.168307295310D+01 -.770603527301D-08
     .222152110670D-09  .100000000000D+01  .194500000000D+04  .000000000000D+00
     .240000000000D+01  .000000000000D+00 -.977888703346D-08  .370000000000D+02
     .151206000000D+06  .400000000000D+01
22 17  4 17 20  0  0.0  .382200814784D-04 -.119371179608D-10  .000000000000D+00
     .114000000000D+03  .596875000000D+01  .550094342209D-08  .551961441695D+00
     .381842255592D-06  .758562493138D-02  .717677175999D-05  .515353393364D+04
     .158400000000D+06 -.160187482834D-06 -.766221430072D+00 -.633299350739D-07
     .923513066792D+00  .224750000000D+03 -.176689152910D+01 -.858750056101D-08
     .521450291926D-10  .100000000000D+01  .194500000000D+04  .000000000000D+00
     .240000000000D+01  .000000000000D+00 -.176951289177D-07  .114000000000D+03
     .151206000000D+06  .400000000000D+01
23 17  4 17 20  0  0.0 -.210010446608D-03 -.795807864051D-12  .000000000000D+00
     .470000000000D+02  .122187500000D+02  .496842124040D-08 -.246689709125D+00
     .782310962677D-06  .115308535751D-01  .783242285252D-05  .515376252937D+04
     .158400000000D+06  .409781932831D-07  .316713080280D+00  .171363353729D-06
     .944934267551D+00  .221375000000D+03 -.247917470145D+01 -.837927760197D-08
    -.155006456641D-09  .100000000000D+01  .194500000000D+04  .000000000000D+00
     .240000000000D+01  .000000000000D+00 -.204890966415D-07  .470000000000D+02
     .151206000000D+06  .400000000000D+01
24 17  4 17 20  0  0.0 -.335243530571D-04 -.568434188608D-12  .000000000000D+00
     .530000000000D+02  .690937500000D+02  .488091759552D-08 -.885847063383D+00
     .362284481525D-05  .564451771788D-02  .829249620438D-05  .515369852257D+04
     .158400000000D+06  .106170773506D-06  .134032619230D+01 -.186264514923D-08
     .945646300501D+00  .210687500000D+03  .484787235163D+00 -.824105755884D-08
    -.714315468392D-11  .100000000000D+01  .194500000000D+04  .000000000000D+00
     .240000000000D+01  .000000000000D+00  .279396772385D-08  .530000000000D+02
     .151206000000D+06  .400000000000D+01
